STARLINK-31279          
1 59086U 24041N   26068.40296014 -.00000476  00000+0 -77806-5 0  9998
2 59086  43.0036 312.6672 0001274 267.9500  92.1205 15.27575078114277
2025-313BC              
1 67298U 25313BC  26068.18968176  .00075331  00000+0  26410-2 0  9997
2 67298  97.3985 144.8110 0008478 328.9209  31.1528 15.29126358  7890
